name,address,phonenumber,emailaddress
Lisa Hernandez,6257 Donna Cliff Apt. 111,90326789876,abcd@gmail.com
Tiffany Strong,0563 Mullins Cape,90326789876,abcd@gmail.com
Catherine Rogers,USNS Mason,90326789876,abcd@gmail.com
Anne Luna,9289 Emily Divide Apt. 724,90326789876,abcd@gmail.com
Steve Lee,714 Lisa Gateway Apt. 269,90326789876,abcd@gmail.com
Lindsey Carrillo,801 Scott Plains,90326789876,abcd@gmail.com
Karen Reed,347 Burke Alley Suite 772,90326789876,abcd@gmail.com
Frederick Hoffman,3839 Kevin Common,90326789876,abcd@gmail.com
Barbara Green,6382 Dakota Cape,90326789876,abcd@gmail.com
James Smith,1657 Bradford Glens Apt. 656,90326789876,abcd@gmail.com
Jennifer Gonzales,690 Mary Stream Apt. 192,90326789876,abcd@gmail.com
Robert Martin,0730 Scott Track,90326789876,abcd@gmail.com
Sharon Hill,218 Brian Extensions Apt. 225,90326789876,abcd@gmail.com
Kevin Ward,PSC 2179,90326789876,abcd@gmail.com
Michael Fernandez,16728 Williams Circles Apt. 108,90326789876,abcd@gmail.com
Maria Miller,2577 Morris Gardens Suite 231,90326789876,abcd@gmail.com
Lisa Patterson,065 Ruben Mills Apt. 931,90326789876,abcd@gmail.com
Amy Marks,6793 John Prairie Suite 009,90326789876,abcd@gmail.com
Brianna Nguyen,89659 Torres Branch Apt. 759,90326789876,abcd@gmail.com
Janice House,6837 Sherman Plaza Apt. 698,90326789876,abcd@gmail.com
Megan Nelson,52781 Love Ridge,90326789876,abcd@gmail.com
Marie Wells,12974 Thomas Crossroad Suite 438,90326789876,abcd@gmail.com
Erika Marsh,736 Green Mountain Suite 534,90326789876,abcd@gmail.com
Gabriel Nash,12267 Brittany Plains Suite 782,90326789876,abcd@gmail.com
Jessica Lee,133 Price Common,90326789876,abcd@gmail.com
Bruce Banks,USCGC Wong,90326789876,gdfe@gmail.com
James Robbins,117 Cooper Dam Apt. 515,90326789876,gdfe@gmail.com
Jonathan Torres,1448 Latoya Throughway,90326789876,gdfe@gmail.com
Dominique Stewart,74258 Nicholas Summit,90326789876,gdfe@gmail.com
Susan Flores,148 Stephen Village Apt. 030,90326789876,gdfe@gmail.com
Randy Mcknight,08612 Stacy Land Apt. 948,90326789876,gdfe@gmail.com
Jordan Wang,USNV Jackson,90326789876,gdfe@gmail.com
Michael Spencer,8612 Scott Ranch,90326789876,gdfe@gmail.com
Todd Murphy,7255 Sara Trafficway,90326789876,gdfe@gmail.com
Billy Clark,PSC 4857,90326789876,gdfe@gmail.com
Charles Meyer,713 Thomas Light Suite 622,90326789876,gdfe@gmail.com
Jacob Holloway,85206 Brian Terrace,90326789876,gdfe@gmail.com
Gerald Chandler,903 Tara Prairie Suite 246,90326789876,gdfe@gmail.com
Joshua Roman,7672 Kelly Creek,90326789876,gdfe@gmail.com
Donald Young,293 Conway Bypass Suite 381,90326789876,gdfe@gmail.com
Garrett Miller,115 Rodriguez Knoll,90326789876,gdfe@gmail.com
Debra Evans,07857 Michael Squares Apt. 686,90326789876,gdfe@gmail.com
Jason Ashley,1360 Lori Trace,90326789876,dghcvsddhf@yahoo.com
Sheena Gillespie,09075 Jennifer Points,90326789876,dghcvsddhf@yahoo.com
Jason Barry,PSC 1283,90326789876,dghcvsddhf@yahoo.com
Jennifer Williams,934 Park Knoll,90326789876,dghcvsddhf@yahoo.com
Jason Wood,2145 Monica Extensions,90326789876,dghcvsddhf@yahoo.com
Taylor Maxwell,280 Edwards Garden,90326789876,dghcvsddhf@yahoo.com
Julie Chaney,PSC 0308,90326789876,dghcvsddhf@yahoo.com
Alexis Crawford,USNV Brown,90326789876,dghcvsddhf@yahoo.com
Kayla Green,43469 Kaitlyn Circles,90326789876,dghcvsddhf@yahoo.com
Joseph Werner,766 Joel Knoll,90326789876,dghcvsddhf@yahoo.com
Patricia Thompson,830 Patricia Springs,90326789876,dghcvsddhf@yahoo.com
Joshua Nguyen,94955 Baker Manor,90326789876,dghcvsddhf@yahoo.com
Nicole Morales,471 Brown Estate Suite 073,90326789876,dghcvsddhf@yahoo.com
Nathaniel Bell,5915 Terrence Flats,90326789876,dghcvsddhf@yahoo.com
Michele Castro,986 Bell Rapids Apt. 694,90326789876,dghcvsddhf@yahoo.com
Jessica Day,774 Burch Trail Suite 598,90326789876,dghcvsddhf@yahoo.com
Amber Wade,83095 James Field Suite 190,90326789876,dghcvsddhf@yahoo.com
Charles Stewart,96453 Morris Ridges Apt. 714,90326789876,dghcvsddhf@yahoo.com
Richard Smith,35894 Melissa Circles,90326789876,dghcvsddhf@yahoo.com
Brian Bates,8961 Jennifer Heights Suite 365,90326789876,dghcvsddhf@yahoo.com
Jacqueline Bautista,33892 Cook Pike Suite 521,90326789876,dghcvsddhf@yahoo.com
Matthew Johnson,9015 Susan Harbors Suite 651,90326789876,dghcvsddhf@yahoo.com
Christopher Henry,03306 Jose Mission,90326789876,dghcvsddhf@yahoo.com
Patricia Crosby,30493 Ana Spurs Apt. 269,90326789876,dghcvsddhf@yahoo.com
Bradley Baker,633 David Place Apt. 891,90326789874,dghcvsddhf@yahoo.com
Carrie Allison,64325 Eric Locks Suite 717,90326789874,dghcvsddhf@yahoo.com
Shelley Salas,61724 Brandon Loop Apt. 585,90326789874,dghcvsddhf@yahoo.com
Heather Ellis,22089 Christopher Divide,90326789874,dghcvsddhf@yahoo.com
Jack Lopez,3158 Teresa Harbor,90326789874,bcjsddd@gmail.com
Matthew Romero,58921 Hawkins Fort Suite 344,90326789874,bcjsddd@gmail.com
Katherine Maxwell,913 Sara Brooks,90326789874,bcjsddd@gmail.com
Collin Dixon,Unit 4407 Box 6494,90326789874,bcjsddd@gmail.com
Philip Ortiz,65240 Samuel Cliff Apt. 644,90326789874,bcjsddd@gmail.com
Felicia Baker,18399 Rogers Walk,90326789874,bcjsddd@gmail.com
Lindsey Morrison,531 Sanders Manors Apt. 156,90326789874,bcjsddd@gmail.com
Richard Craig,65785 Theresa Mission,90326789874,bcjsddd@gmail.com
Noah Smith,22410 White Ridge Suite 476,90326789874,bcjsddd@gmail.com
Ricky Harrington,38314 Derrick Turnpike,90326789874,bcjsddd@gmail.com
Julia Snyder,514 Laura Street Suite 823,90326789874,bcjsddd@gmail.com
George Mendez,9280 Sellers Loop Suite 967,90326789865,bcjsddd@gmail.com
Andrew Johnston,PSC 3133,90326789865,bcjsddd@gmail.com
Nicole White,2305 Christopher Pike Suite 292,90326789865,bcjsddd@gmail.com
Elizabeth Garcia,66628 Richard Mills Suite 759,90326789865,bcjsddd@gmail.com
Aaron Morales,8604 Whitney Skyway Suite 119,90326789865,bcjsddd@gmail.com
Christine Rodriguez,Unit 4187 Box 6350,90326789865,bcjsddd@gmail.com
Alexander Fernandez,USNV Phillips,90326789865,bcjsddd@gmail.com
David Huerta,956 Maria Street Apt. 590,90326789865,bcjsddd@gmail.com
Amanda Medina,3296 Sarah Mission Apt. 139,90326789865,bcjsddd@gmail.com
Briana Mcdowell,281 Kathleen River Suite 303,90326789865,bcjsddd@gmail.com
Gregory Phillips,0430 Valenzuela Ports Suite 760,90326789865,bcjsddd@gmail.com
Linda Smith,76501 Kevin Via Apt. 470,90326789865,bcjsddd@gmail.com
Pamela Stevens,PSC 1016,90326789865,bcjsddd@gmail.com
Valerie Johns,Unit 8696 Box 5198,90326789865,bcjsddd@gmail.com
Brianna Padilla,7442 William Hill Suite 867,90326789865,bcjsddd@gmail.com
Eric Owens,8574 Beasley Square,90326789865,bcjsddd@gmail.com
Gregory Moore,8960 Christopher Turnpike Suite 349,90326789865,bcjsddd@gmail.com
Roger Hernandez,5550 Brittany Cove,90326789865,bcjsddd@gmail.com
Stephen Lutz,Unit 1932 Box 0775,90326789865,bcjsddd@gmail.com
